IRIDIUM 106             
1 41917U 17003A   25355.46484110  .00000034  00000+0  51452-5 0  9999
2 41917  86.3989 162.8110 0002426  96.0408 264.1065 14.34217868467732
IRIDIUM 103             
1 41918U 17003B   25355.52192959  .00000065  00000+0  16107-4 0  9995
2 41918  86.3990 162.6875 0001791 101.9029 258.2368 14.34217206467769
IRIDIUM 109             
1 41919U 17003C   25355.52826797  .00000095  00000+0  26938-4 0  9996
2 41919  86.3990 162.7414 0001967  96.2812 263.8608 14.34218673467736
IRIDIUM 102             
1 41920U 17003D   25355.49655300  .00000047  00000+0  95815-5 0  9992
2 41920  86.3988 162.6821 0002012  89.6224 270.5202 14.34217507467810
IRIDIUM 105             
1 41921U 17003E   25355.39752625  .00000271  00000+0  89797-4 0  9990
2 41921  86.3985 131.2153 0001955  96.5483 263.5935 14.34216997469658
IRIDIUM 104             
1 41922U 17003F   25355.50923755 -.00000071  00000+0 -32290-4 0  9994
2 41922  86.3993 162.7168 0001531  92.3512 267.7859 14.34216850467804
IRIDIUM 114             
1 41923U 17003G   25355.51557385  .00000058  00000+0  13638-4 0  9996
2 41923  86.3990 162.6979 0001851  94.5793 265.5614 14.34217244467781
IRIDIUM 108             
1 41924U 17003H   25355.26479755  .00000247  00000+0  81099-4 0  9999
2 41924  86.3967 131.1603 0002096  89.5876 270.5560 14.34217918469606
